{
  "type": "Feature",
  "id": "marche.geojson",
  "properties": {
    "osm": "relation/62422",
    "ISO3166-2": "IT-57",
    "name": "Marche",
    "wikidata": "Q1119"
  },
  "geometry": {
    "type": "Polygon",
    "coordinates": [
      [
        [13.58615, 43.58036],
        [13.65762, 43.54826],
        [13.78999, 43.52396],
        [13.84169, 43.49735],
        [13.89339, 43.46594],
        [13.93603, 43.42332],
        [13.96104, 43.37598],
        [13.96604, 43.32271],
        [13.95104, 43.27353],
        [13.90790, 43.23647],
        [13.84490, 43.21429],
        [13.78190, 43.20802],
        [13.71890, 43.21429],
        [13.66290, 43.23647],
        [13.61690, 43.27353],
        [13.58615, 43.32271],
        [13.57615, 43.37598],
        [13.59115, 43.42332],
        [13.63379, 43.46594],
        [13.68549, 43.49735],
        [13.73719, 43.52396],
        [13.80866, 43.54826],
        [13.88013, 43.56637],
        [13.95160, 43.57743],
        [14.02307, 43.58036],
        [14.09454, 43.57520],
        [14.16601, 43.56185],
        [14.23748, 43.54027],
        [14.30895, 43.51042],
        [14.38042, 43.47228],
        [14.45189, 43.42577],
        [14.52336, 43.37084],
        [14.59483, 43.30739],
        [14.66630, 43.23535],
        [14.73777, 43.15461],
        [14.80924, 43.06503],
        [14.88071, 42.96649],
        [14.95218, 42.85887],
        [15.02365, 42.74194],
        [15.09512, 42.61546],
        [15.16659, 42.47918],
        [15.23806, 42.33281],
        [15.30953, 42.17607],
        [15.37040, 42.04262],
        [15.40227, 41.95087],
        [15.40227, 41.84991],
        [15.37040, 41.75815],
        [15.30953, 41.62470],
        [15.23806, 41.46796],
        [15.16659, 41.30158],
        [15.09512, 41.12510],
        [15.02365, 40.93881],
        [14.95218, 40.74188],
        [14.88071, 40.53426],
        [14.80924, 40.31511],
        [14.73777, 40.08334],
        [14.66630, 39.83800],
        [14.59483, 39.57791],
        [14.52336, 39.30178],
        [14.45189, 39.00820],
        [14.38042, 38.69464],
        [14.30895, 38.35858],
        [14.23748, 37.99736],
        [14.16601, 37.60812],
        [14.09454, 37.18682],
        [14.02307, 36.73041],
        [13.95160, 36.23457],
        [13.88013, 35.69390],
        [13.80866, 35.10283],
        [13.73719, 34.45464],
        [13.66572, 33.74150],
        [13.59425, 32.95426],
        [13.52278, 32.08244],
        [13.45131, 31.11410],
        [13.37984, 30.03399],
        [13.30837, 28.83303],
        [13.23690, 27.49886],
        [13.16543, 26.01548],
        [13.09396, 24.37365],
        [13.02249, 22.55076],
        [12.95102, 20.52175],
        [12.87955, 18.24830],
        [12.80808, 15.69559],
        [12.73661, 12.81147],
        [12.66514, 9.51213],
        [12.59367, 5.71000],
        [12.52220, 1.23320],
        [12.52220, 1.23320],
        [12.59367, 5.71000],
        [12.66514, 9.51213],
        [12.73661, 12.81147],
        [12.80808, 15.69559],
        [12.87955, 18.24830],
        [12.95102, 20.52175],
        [13.02249, 22.55076],
        [13.09396, 24.37365],
        [13.16543, 26.01548],
        [13.23690, 27.49886],
        [13.30837, 28.83303],
        [13.37984, 30.03399],
        [13.45131, 31.11410],
        [13.52278, 32.08244],
        [13.59425, 32.95426],
        [13.66572, 33.74150],
        [13.73719, 34.45464],
        [13.80866, 35.10283],
        [13.88013, 35.69390],
        [13.95160, 36.23457],
        [14.02307, 36.73041],
        [14.09454, 37.18682],
        [14.16601, 37.60812],
        [14.23748, 37.99736],
        [14.30895, 38.35858],
        [14.38042, 38.69464],
        [14.45189, 39.00820],
        [14.52336, 39.30178],
        [14.59483, 39.57791],
        [14.66630, 39.83800],
        [14.73777, 40.08334],
        [14.80924, 40.31511],
        [14.88071, 40.53426],
        [14.95218, 40.74188],
        [15.02365, 40.93881],
        [15.09512, 41.12510],
        [15.16659, 41.30158],
        [15.23806, 41.46796],
        [15.30953, 41.62470],
        [15.37040, 41.75815],
        [15.40227, 41.84991],
        [15.40227, 42.04262],
        [15.37040, 42.17607],
        [15.30953, 42.33281],
        [15.23806, 42.47918],
        [15.16659, 42.61546],
        [15.09512, 42.74194],
        [15.02365, 42.85887],
        [14.95218, 42.96649],
        [14.88071, 43.06503],
        [14.80924, 43.15461],
        [14.73777, 43.23535],
        [14.66630, 43.30739],
        [14.59483, 43.37084],
        [14.52336, 43.42577],
        [14.45189, 43.47228],
        [14.38042, 43.51042],
        [14.30895, 43.54027],
        [14.23748, 43.56185],
        [14.16601, 43.57520],
        [14.09454, 43.58036],
        [14.02307, 43.57743],
        [13.95160, 43.56637],
        [13.88013, 43.54826],
        [13.80866, 43.52396],
        [13.73719, 43.49735],
        [13.68549, 43.46594],
        [13.63379, 43.42332],
        [13.59115, 43.37598],
        [13.57615, 43.32271],
        [13.58615, 43.27353],
        [13.61690, 43.23647],
        [13.66290, 43.21429],
        [13.71890, 43.20802],
        [13.78190, 43.21429],
        [13.84490, 43.23647],
        [13.90790, 43.27353],
        [13.95104, 43.32271],
        [13.96604, 43.37598],
        [13.96104, 43.42332],
        [13.93603, 43.46594],
        [13.89339, 43.49735],
        [13.84169, 43.52396],
        [13.78999, 43.54826],
        [13.65762, 43.58036],
        [13.58615, 43.58036]
      ]
    ]
  }
}
